{
  "type": "FeatureCollection",
  "features": [
    {
      "type": "Feature",
      "properties": {
        "norad_id": 52912,
        "name": "GAOFEN-12 03",
        "group": "resource",
        "lat": 24.230899933550166,
        "lon": 68.8062142307587,
        "alt_km": 630.2219391203907,
        "timestamp": "2025-12-24T03:53:29.300275+00:00",
        "meta_object_name": "GAOFEN-12 03",
        "meta_object_id": "2022-069A",
        "meta_epoch": "2025-12-23T20:41:58.070688",
        "meta_mean_motion": 14.79636082,
        "meta_eccentricity": 0.0001852,
        "meta_inclination": 97.8482,
        "meta_ra_of_asc_node": 244.9544,
        "meta_arg_of_pericenter": 51.729,
        "meta_mean_anomaly": 308.4089,
        "meta_ephemeris_type": 0,
        "meta_classification_type": "U",
        "meta_norad_cat_id": 52912,
        "meta_element_set_no": 999,
        "meta_rev_at_epoch": 18868,
        "meta_bstar": 0.00024875,
        "meta_mean_motion_dot": 1.815e-05,
        "meta_mean_motion_ddot": 0,
        "tle_line1": "1 52912U 22069A   25357.86247767  .00001815  00000+0  24875-3 0  9990",
        "tle_line2": "2 52912  97.8482 244.9544 0001852  51.7290 308.4089 14.79636082188680"
      },
      "geometry": {
        "type": "Point",
        "coordinates": [
          68.8062142307587,
          24.230899933550166
        ]
      }
    },
    {
      "type": "Feature",
      "properties": {
        "norad_id": 54754,
        "name": "SWOT",
        "group": "resource",
        "lat": 63.8709366540598,
        "lon": 64.94970239562164,
        "alt_km": 886.5608896158419,
        "timestamp": "2025-12-24T03:53:29.300286+00:00",
        "meta_object_name": "SWOT",
        "meta_object_id": "2022-173A",
        "meta_epoch": "2025-12-23T18:46:42.797856",
        "meta_mean_motion": 14.0016846,
        "meta_eccentricity": 3.91e-05,
        "meta_inclination": 77.6109,
        "meta_ra_of_asc_node": 272.0837,
        "meta_arg_of_pericenter": 83.2521,
        "meta_mean_anomaly": 276.8675,
        "meta_ephemeris_type": 0,
        "meta_classification_type": "U",
        "meta_norad_cat_id": 54754,
        "meta_element_set_no": 999,
        "meta_rev_at_epoch": 15460,
        "meta_bstar": 4.7302e-05,
        "meta_mean_motion_dot": 6.7e-07,
        "meta_mean_motion_ddot": 0,
        "tle_line1": "1 54754U 22173A   25357.78243979  .00000067  00000+0  47302-4 0  9993",
        "tle_line2": "2 54754  77.6109 272.0837 0000391  83.2521 276.8675 14.00168460154607"
      },
      "geometry": {
        "type": "Point",
        "coordinates": [
          64.94970239562164,
          63.8709366540598
        ]
      }
    },
    {
      "type": "Feature",
      "properties": {
        "norad_id": 57654,
        "name": "GAOFEN-12 04",
        "group": "resource",
        "lat": -30.878096184762846,
        "lon": -81.48297638624182,
        "alt_km": 636.4842675633472,
        "timestamp": "2025-12-24T03:53:29.300296+00:00",
        "meta_object_name": "GAOFEN-12 04",
        "meta_object_id": "2023-123A",
        "meta_epoch": "2025-12-23T21:32:26.162592",
        "meta_mean_motion": 14.7973046,
        "meta_eccentricity": 0.0001202,
        "meta_inclination": 97.9128,
        "meta_ra_of_asc_node": 273.4858,
        "meta_arg_of_pericenter": 78.9089,
        "meta_mean_anomaly": 281.2258,
        "meta_ephemeris_type": 0,
        "meta_classification_type": "U",
        "meta_norad_cat_id": 57654,
        "meta_element_set_no": 999,
        "meta_rev_at_epoch": 12670,
        "meta_bstar": 0.00017626,
        "meta_mean_motion_dot": 1.273e-05,
        "meta_mean_motion_ddot": 0,
        "tle_line1": "1 57654U 23123A   25357.89752503  .00001273  00000+0  17626-3 0  9996",
        "tle_line2": "2 57654  97.9128 273.4858 0001202  78.9089 281.2258 14.79730460126703"
      },
      "geometry": {
        "type": "Point",
        "coordinates": [
          -81.48297638624182,
          -30.878096184762846
        ]
      }
    },
    {
      "type": "Feature",
      "properties": {
        "norad_id": 59065,
        "name": "PARS 1",
        "group": "resource",
        "lat": 5.2998186403155545,
        "lon": -31.357587260542143,
        "alt_km": 438.0961182152014,
        "timestamp": "2025-12-24T03:53:29.300306+00:00",
        "meta_object_name": "PARS 1",
        "meta_object_id": "2024-039Q",
        "meta_epoch": "2025-12-23T21:38:07.880640",
        "meta_mean_motion": 15.41219229,
        "meta_eccentricity": 0.0011702,
        "meta_inclination": 97.4653,
        "meta_ra_of_asc_node": 329.073,
        "meta_arg_of_pericenter": 38.1125,
        "meta_mean_anomaly": 322.0947,
        "meta_ephemeris_type": 0,
        "meta_classification_type": "U",
        "meta_norad_cat_id": 59065,
        "meta_element_set_no": 999,
        "meta_rev_at_epoch": 10160,
        "meta_bstar": 0.00027689,
        "meta_mean_motion_dot": 0.00011443,
        "meta_mean_motion_ddot": 0,
        "tle_line1": "1 59065U 24039Q   25357.90148010  .00011443  00000+0  27689-3 0  9995",
        "tle_line2": "2 59065  97.4653 329.0730 0011702  38.1125 322.0947 15.41219229101607"
      },
      "geometry": {
        "type": "Point",
        "coordinates": [
          -31.357587260542143,
          5.2998186403155545
        ]
      }
    },
    {
      "type": "Feature",
      "properties": {
        "norad_id": 59371,
        "name": "RESURS-P 4",
        "group": "resource",
        "lat": 40.406064260224305,
        "lon": 130.4859938652153,
        "alt_km": 466.009696920185,
        "timestamp": "2025-12-24T03:53:29.300317+00:00",
        "meta_object_name": "RESURS-P 4",
        "meta_object_id": "2024-061A",
        "meta_epoch": "2025-12-23T21:01:00.403104",
        "meta_mean_motion": 15.3218202,
        "meta_eccentricity": 8.09e-05,
        "meta_inclination": 97.2562,
        "meta_ra_of_asc_node": 303.9786,
        "meta_arg_of_pericenter": 71.372,
        "meta_mean_anomaly": 288.761,
        "meta_ephemeris_type": 0,
        "meta_classification_type": "U",
        "meta_norad_cat_id": 59371,
        "meta_element_set_no": 999,
        "meta_rev_at_epoch": 9691,
        "meta_bstar": 0.00011099,
        "meta_mean_motion_dot": 3.372e-05,
        "meta_mean_motion_ddot": 0,
        "tle_line1": "1 59371U 24061A   25357.87569911  .00003372  00000+0  11099-3 0  9993",
        "tle_line2": "2 59371  97.2562 303.9786 0000809  71.3720 288.7610 15.32182020 96912"
      },
      "geometry": {
        "type": "Point",
        "coordinates": [
          130.4859938652153,
          40.406064260224305
        ]
      }
    },
    {
      "type": "Feature",
      "properties": {
        "norad_id": 59625,
        "name": "LEGION 1",
        "group": "resource",
        "lat": 80.40520244042303,
        "lon": 21.311598337682216,
        "alt_km": 511.2614372219523,
        "timestamp": "2025-12-24T03:53:29.300327+00:00",
        "meta_object_name": "LEGION 1",
        "meta_object_id": "2024-081A",
        "meta_epoch": "2025-12-23T18:01:16.013856",
        "meta_mean_motion": 15.16582955,
        "meta_eccentricity": 0.0003614,
        "meta_inclination": 97.5198,
        "meta_ra_of_asc_node": 72.2955,
        "meta_arg_of_pericenter": 265.8361,
        "meta_mean_anomaly": 94.2459,
        "meta_ephemeris_type": 0,
        "meta_classification_type": "U",
        "meta_norad_cat_id": 59625,
        "meta_element_set_no": 999,
        "meta_rev_at_epoch": 9094,
        "meta_bstar": 0.00027008,
        "meta_mean_motion_dot": 5.207e-05,
        "meta_mean_motion_ddot": 0,
        "tle_line1": "1 59625U 24081A   25357.75087979  .00005207  00000+0  27008-3 0  9999",
        "tle_line2": "2 59625  97.5198  72.2955 0003614 265.8361  94.2459 15.16582955 90945"
      },
      "geometry": {
        "type": "Point",
        "coordinates": [
          21.311598337682216,
          80.40520244042303
        ]
      }
    },
    {
      "type": "Feature",
      "properties": {
        "norad_id": 59626,
        "name": "LEGION 2",
        "group": "resource",
        "lat": -80.61270884685517,
        "lon": -160.24819547883087,
        "alt_km": 519.7690729383366,
        "timestamp": "2025-12-24T03:53:29.300361+00:00",
        "meta_object_name": "LEGION 2",
        "meta_object_id": "2024-081B",
        "meta_epoch": "2025-12-23T18:48:41.629824",
        "meta_mean_motion": 15.16595634,
        "meta_eccentricity": 0.0005736,
        "meta_inclination": 97.52,
        "meta_ra_of_asc_node": 72.416,
        "meta_arg_of_pericenter": 245.8328,
        "meta_mean_anomaly": 114.2306,
        "meta_ephemeris_type": 0,
        "meta_classification_type": "U",
        "meta_norad_cat_id": 59626,
        "meta_element_set_no": 999,
        "meta_rev_at_epoch": 9095,
        "meta_bstar": 0.0002488,
        "meta_mean_motion_dot": 4.794e-05,
        "meta_mean_motion_ddot": 0,
        "tle_line1": "1 59626U 24081B   25357.78381516  .00004794  00000+0  24880-3 0  9992",
        "tle_line2": "2 59626  97.5200  72.4160 0005736 245.8328 114.2306 15.16595634 90951"
      },
      "geometry": {
        "type": "Point",
        "coordinates": [
          -160.24819547883087,
          -80.61270884685517
        ]
      }
    }
  ]
}